[{"OBJECT_NAME":"STARLINK-30910","OBJECT_ID":"2023-178C","EPOCH":"2026-03-09T01:11:19.380768","MEAN_MOTION":15.30193467,"ECCENTRICITY":7.766e-5,"INCLINATION":53.1613,"RA_OF_ASC_NODE":4.0336,"ARG_OF_PERICENTER":92.6274,"MEAN_ANOMALY":267.4816,"EPHEMERIS_TYPE":0,"CLASSIFICATION_TYPE":"U","NORAD_CAT_ID":58376,"ELEMENT_SET_NO":999,"REV_AT_EPOCH":12979,"BSTAR":6.876037e-6,"MEAN_MOTION_DOT":-1.55e-6,"MEAN_MOTION_DDOT":0},{"OBJECT_NAME":"OBJECT E","OBJECT_ID":"2024-092E","EPOCH":"2026-03-09T21:25:47.709120","MEAN_MOTION":15.32997986,"ECCENTRICITY":0.0008531,"INCLINATION":97.642,"RA_OF_ASC_NODE":198.2099,"ARG_OF_PERICENTER":142.2606,"MEAN_ANOMALY":217.9236,"EPHEMERIS_TYPE":0,"CLASSIFICATION_TYPE":"U","NORAD_CAT_ID":59777,"ELEMENT_SET_NO":999,"REV_AT_EPOCH":10051,"BSTAR":0.00078641119,"MEAN_MOTION_DOT":0.00025066,"MEAN_MOTION_DDOT":0}]
